{"type":"FeatureCollection","features":[{"type":"Feature","id":1,"geometry":{"type":"LineString","coordinates":[[106.69778000000008,10.770830000000046],[106.70207000000005,10.775300000000072],[106.70834000000008,10.781790000000058],[106.71550000000008,10.796000000000049],[106.72330000000005,10.798500000000047],[106.73365000000007,10.800490000000025],[106.74225000000007,10.802130000000034],[106.75528000000008,10.808550000000025],[106.75806000000006,10.821390000000065],[106.76389000000006,10.832500000000039],[106.77165000000008,10.846410000000049],[106.78889000000004,10.858890000000031],[106.80120000000005,10.866300000000024],[106.81389000000007,10.879440000000045]]},"properties":{"OBJECTID":1,"Shape_Length":0.16867361433020328,"LINE_ID":"L1","LINE_NAME":"Metro số 1 Bến Thành - Suối Tiên","DIRECTION":"BenThanh-SuoiTien"}}]}