{"type":"FeatureCollection","features":[{"type":"Feature","id":1,"geometry":{"type":"Point","coordinates":[106.69778000000008,10.770830000000046]},"properties":{"OBJECTID":1,"STATION_ID":"L1-01","STATION_NAME":"Bến Thành","STATION_NO":1,"STATION_TYPE":"Ngầm","LAT":10.77083,"LON":106.69777999999999,"DIST_PREV_KM":0,"DIST_FROM_START_KM":0,"SOURCE_COORD":"https://en.wikipedia.org/wiki/Ben_Thanh_station"}},{"type":"Feature","id":2,"geometry":{"type":"Point","coordinates":[106.70207000000005,10.775300000000072]},"properties":{"OBJECTID":2,"STATION_ID":"L1-02","STATION_NAME":"Nhà hát Thành phố","STATION_NO":2,"STATION_TYPE":"Ngầm","LAT":10.7753,"LON":106.70207000000001,"DIST_PREV_KM":0.59999999999999998,"DIST_FROM_START_KM":0.59999999999999998,"SOURCE_COORD":"https://mapcarta.com/W1162989826"}},{"type":"Feature","id":3,"geometry":{"type":"Point","coordinates":[106.70834000000008,10.781790000000058]},"properties":{"OBJECTID":3,"STATION_ID":"L1-03","STATION_NAME":"Ba Son","STATION_NO":3,"STATION_TYPE":"Ngầm","LAT":10.781790000000001,"LON":106.70834000000001,"DIST_PREV_KM":1.7,"DIST_FROM_START_KM":2.2999999999999998,"SOURCE_COORD":"https://mapcarta.com/W1163010587"}},{"type":"Feature","id":4,"geometry":{"type":"Point","coordinates":[106.71550000000008,10.796000000000049]},"properties":{"OBJECTID":4,"STATION_ID":"L1-04","STATION_NAME":"Công viên Văn Thánh","STATION_NO":4,"STATION_TYPE":"Trên cao","LAT":10.795999999999999,"LON":106.71550000000001,"DIST_PREV_KM":1.2,"DIST_FROM_START_KM":3.5,"SOURCE_COORD":"https://en.wikipedia.org/wiki/Van_Thanh_Park_station"}},{"type":"Feature","id":5,"geometry":{"type":"Point","coordinates":[106.72330000000005,10.798500000000047]},"properties":{"OBJECTID":5,"STATION_ID":"L1-05","STATION_NAME":"Tân Cảng","STATION_NO":5,"STATION_TYPE":"Trên cao","LAT":10.798500000000001,"LON":106.72329999999999,"DIST_PREV_KM":0.90000000000000002,"DIST_FROM_START_KM":4.4000000000000004,"SOURCE_COORD":"https://en.wikipedia.org/wiki/Tan_Cang_station"}},{"type":"Feature","id":6,"geometry":{"type":"Point","coordinates":[106.73365000000007,10.800490000000025]},"properties":{"OBJECTID":6,"STATION_ID":"L1-06","STATION_NAME":"Thảo Điền","STATION_NO":6,"STATION_TYPE":"Trên cao","LAT":10.80049,"LON":106.73365,"DIST_PREV_KM":1.1000000000000001,"DIST_FROM_START_KM":5.5,"SOURCE_COORD":"https://mapcarta.com/N11586280300"}},{"type":"Feature","id":7,"geometry":{"type":"Point","coordinates":[106.74225000000007,10.802130000000034]},"properties":{"OBJECTID":7,"STATION_ID":"L1-07","STATION_NAME":"An Phú","STATION_NO":7,"STATION_TYPE":"Trên cao","LAT":10.80213,"LON":106.74225,"DIST_PREV_KM":1,"DIST_FROM_START_KM":6.5,"SOURCE_COORD":"https://mapcarta.com/N11586280301"}},{"type":"Feature","id":8,"geometry":{"type":"Point","coordinates":[106.75528000000008,10.808550000000025]},"properties":{"OBJECTID":8,"STATION_ID":"L1-08","STATION_NAME":"Rạch Chiếc","STATION_NO":8,"STATION_TYPE":"Trên cao","LAT":10.80855,"LON":106.75528,"DIST_PREV_KM":1.7,"DIST_FROM_START_KM":8.1999999999999993,"SOURCE_COORD":"https://mapcarta.com/N11586280302"}},{"type":"Feature","id":9,"geometry":{"type":"Point","coordinates":[106.75806000000006,10.821390000000065]},"properties":{"OBJECTID":9,"STATION_ID":"L1-09","STATION_NAME":"Phước Long","STATION_NO":9,"STATION_TYPE":"Trên cao","LAT":10.821389999999999,"LON":106.75806,"DIST_PREV_KM":1.5,"DIST_FROM_START_KM":9.6999999999999993,"SOURCE_COORD":"https://en.wikipedia.org/wiki/Phuoc_Long_station"}},{"type":"Feature","id":10,"geometry":{"type":"Point","coordinates":[106.76389000000006,10.832500000000039]},"properties":{"OBJECTID":10,"STATION_ID":"L1-10","STATION_NAME":"Bình Thái","STATION_NO":10,"STATION_TYPE":"Trên cao","LAT":10.8325,"LON":106.76389,"DIST_PREV_KM":1.3,"DIST_FROM_START_KM":11,"SOURCE_COORD":"https://en.wikipedia.org/wiki/Binh_Thai_station"}},{"type":"Feature","id":11,"geometry":{"type":"Point","coordinates":[106.77165000000008,10.846410000000049]},"properties":{"OBJECTID":11,"STATION_ID":"L1-11","STATION_NAME":"Thủ Đức","STATION_NO":11,"STATION_TYPE":"Trên cao","LAT":10.846410000000001,"LON":106.77164999999999,"DIST_PREV_KM":1.8,"DIST_FROM_START_KM":12.800000000000001,"SOURCE_COORD":"https://mapcarta.com/N11586280327"}},{"type":"Feature","id":12,"geometry":{"type":"Point","coordinates":[106.78889000000004,10.858890000000031]},"properties":{"OBJECTID":12,"STATION_ID":"L1-12","STATION_NAME":"Khu Công nghệ cao","STATION_NO":12,"STATION_TYPE":"Trên cao","LAT":10.858890000000001,"LON":106.78888999999999,"DIST_PREV_KM":2.3999999999999999,"DIST_FROM_START_KM":15.199999999999999,"SOURCE_COORD":"https://www.wikidata.org/wiki/Q60314137"}},{"type":"Feature","id":13,"geometry":{"type":"Point","coordinates":[106.80120000000005,10.866300000000024]},"properties":{"OBJECTID":13,"STATION_ID":"L1-13","STATION_NAME":"Đại học Quốc Gia","STATION_NO":13,"STATION_TYPE":"Trên cao","LAT":10.866300000000001,"LON":106.80119999999999,"DIST_PREV_KM":1.5,"DIST_FROM_START_KM":16.699999999999999,"SOURCE_COORD":"https://mapcarta.com/W1047604521"}},{"type":"Feature","id":14,"geometry":{"type":"Point","coordinates":[106.81389000000007,10.879440000000045]},"properties":{"OBJECTID":14,"STATION_ID":"L1-14","STATION_NAME":"Bến xe Suối Tiên","STATION_NO":14,"STATION_TYPE":"Trên cao","LAT":10.879440000000001,"LON":106.81389,"DIST_PREV_KM":3,"DIST_FROM_START_KM":19.699999999999999,"SOURCE_COORD":"https://fr.wikipedia.org/wiki/Gare_routi%C3%A8re_Su%E1%BB%91i_Ti%C3%AAn_%28m%C3%A9tro_de_H%C3%B4_Chi_Minh-Ville%29"}}]}