{"type":"FeatureCollection","features":[{"type":"Feature","id":1,"geometry":{"type":"Point","coordinates":[106.69777999992353,10.770829999993824]},"properties":{"OBJECTID":1,"STATION_ID":"L1-01","STATION_NAME":"Bến Thành","STATION_NO":1,"STATION_TYPE":"Ngầm","LAT":10.77083,"LON":106.69777999999999,"DIST_PREV_KM":0,"DIST_FROM_START_KM":0,"SOURCE_COORD":"https://en.wikipedia.org/wiki/Ben_Thanh_station","MEAS":0,"Distance":0,"KM_ROUTE":0}},{"type":"Feature","id":2,"geometry":{"type":"Point","coordinates":[106.70207000019819,10.77529999965688]},"properties":{"OBJECTID":2,"STATION_ID":"L1-02","STATION_NAME":"Nhà hát Thành phố","STATION_NO":2,"STATION_TYPE":"Ngầm","LAT":10.7753,"LON":106.70207000000001,"DIST_PREV_KM":0.59999999999999998,"DIST_FROM_START_KM":0.59999999999999998,"SOURCE_COORD":"https://mapcarta.com/W1162989826","MEAS":0.68159999999625143,"Distance":0,"KM_ROUTE":0.68200000000000005}},{"type":"Feature","id":3,"geometry":{"type":"Point","coordinates":[106.70834000016477,10.781790000118031]},"properties":{"OBJECTID":3,"STATION_ID":"L1-03","STATION_NAME":"Ba Son","STATION_NO":3,"STATION_TYPE":"Ngầm","LAT":10.781790000000001,"LON":106.70834000000001,"DIST_PREV_KM":1.7,"DIST_FROM_START_KM":2.2999999999999998,"SOURCE_COORD":"https://mapcarta.com/W1163010587","MEAS":1.6744000000035157,"Distance":0,"KM_ROUTE":1.6739999999999999}},{"type":"Feature","id":4,"geometry":{"type":"Point","coordinates":[106.71550000004042,10.796000000378084]},"properties":{"OBJECTID":4,"STATION_ID":"L1-04","STATION_NAME":"Công viên Văn Thánh","STATION_NO":4,"STATION_TYPE":"Trên cao","LAT":10.795999999999999,"LON":106.71550000000001,"DIST_PREV_KM":1.2,"DIST_FROM_START_KM":3.5,"SOURCE_COORD":"https://en.wikipedia.org/wiki/Van_Thanh_Park_station","MEAS":3.4306000000069616,"Distance":0,"KM_ROUTE":3.431}},{"type":"Feature","id":5,"geometry":{"type":"Point","coordinates":[106.72329999995743,10.798500000332444]},"properties":{"OBJECTID":5,"STATION_ID":"L1-05","STATION_NAME":"Tân Cảng","STATION_NO":5,"STATION_TYPE":"Trên cao","LAT":10.798500000000001,"LON":106.72329999999999,"DIST_PREV_KM":0.90000000000000002,"DIST_FROM_START_KM":4.4000000000000004,"SOURCE_COORD":"https://en.wikipedia.org/wiki/Tan_Cang_station","MEAS":4.3273000000044703,"Distance":0,"KM_ROUTE":4.327}},{"type":"Feature","id":6,"geometry":{"type":"Point","coordinates":[106.73365000031214,10.800490000152546]},"properties":{"OBJECTID":6,"STATION_ID":"L1-06","STATION_NAME":"Thảo Điền","STATION_NO":6,"STATION_TYPE":"Trên cao","LAT":10.80049,"LON":106.73365,"DIST_PREV_KM":1.1000000000000001,"DIST_FROM_START_KM":5.5,"SOURCE_COORD":"https://mapcarta.com/N11586280300","MEAS":5.4805000000051223,"Distance":0,"KM_ROUTE":5.4809999999999999}},{"type":"Feature","id":7,"geometry":{"type":"Point","coordinates":[106.74224999994657,10.802129999875074]},"properties":{"OBJECTID":7,"STATION_ID":"L1-07","STATION_NAME":"An Phú","STATION_NO":7,"STATION_TYPE":"Trên cao","LAT":10.80213,"LON":106.74225,"DIST_PREV_KM":1,"DIST_FROM_START_KM":6.5,"SOURCE_COORD":"https://mapcarta.com/N11586280301","MEAS":6.4382999999943422,"Distance":0,"KM_ROUTE":6.4379999999999997}},{"type":"Feature","id":8,"geometry":{"type":"Point","coordinates":[106.75527999963289,10.808550000110287]},"properties":{"OBJECTID":8,"STATION_ID":"L1-08","STATION_NAME":"Rạch Chiếc","STATION_NO":8,"STATION_TYPE":"Trên cao","LAT":10.80855,"LON":106.75528,"DIST_PREV_KM":1.7,"DIST_FROM_START_KM":8.1999999999999993,"SOURCE_COORD":"https://mapcarta.com/N11586280302","MEAS":8.0304999999934807,"Distance":0,"KM_ROUTE":8.0299999999999994}},{"type":"Feature","id":9,"geometry":{"type":"Point","coordinates":[106.75805999998447,10.821389999770027]},"properties":{"OBJECTID":9,"STATION_ID":"L1-09","STATION_NAME":"Phước Long","STATION_NO":9,"STATION_TYPE":"Trên cao","LAT":10.821389999999999,"LON":106.75806,"DIST_PREV_KM":1.5,"DIST_FROM_START_KM":9.6999999999999993,"SOURCE_COORD":"https://en.wikipedia.org/wiki/Phuoc_Long_station","MEAS":9.4829999999928987,"Distance":0,"KM_ROUTE":9.4830000000000005}},{"type":"Feature","id":10,"geometry":{"type":"Point","coordinates":[106.76388999959767,10.832500000277236]},"properties":{"OBJECTID":10,"STATION_ID":"L1-10","STATION_NAME":"Bình Thái","STATION_NO":10,"STATION_TYPE":"Trên cao","LAT":10.8325,"LON":106.76389,"DIST_PREV_KM":1.3,"DIST_FROM_START_KM":11,"SOURCE_COORD":"https://en.wikipedia.org/wiki/Binh_Thai_station","MEAS":10.867599999997765,"Distance":0,"KM_ROUTE":10.868}},{"type":"Feature","id":11,"geometry":{"type":"Point","coordinates":[106.7716499998004,10.846409999756439]},"properties":{"OBJECTID":11,"STATION_ID":"L1-11","STATION_NAME":"Thủ Đức","STATION_NO":11,"STATION_TYPE":"Trên cao","LAT":10.846410000000001,"LON":106.77164999999999,"DIST_PREV_KM":1.8,"DIST_FROM_START_KM":12.800000000000001,"SOURCE_COORD":"https://mapcarta.com/N11586280327","MEAS":12.624800000005052,"Distance":0,"KM_ROUTE":12.625}},{"type":"Feature","id":12,"geometry":{"type":"Point","coordinates":[106.7888899995457,10.858889999822333]},"properties":{"OBJECTID":12,"STATION_ID":"L1-12","STATION_NAME":"Khu Công nghệ cao","STATION_NO":12,"STATION_TYPE":"Trên cao","LAT":10.858890000000001,"LON":106.78888999999999,"DIST_PREV_KM":2.3999999999999999,"DIST_FROM_START_KM":15.199999999999999,"SOURCE_COORD":"https://www.wikidata.org/wiki/Q60314137","MEAS":14.96140000000014,"Distance":0,"KM_ROUTE":14.961}},{"type":"Feature","id":13,"geometry":{"type":"Point","coordinates":[106.80119999956631,10.866300000351199]},"properties":{"OBJECTID":13,"STATION_ID":"L1-13","STATION_NAME":"Đại học Quốc Gia","STATION_NO":13,"STATION_TYPE":"Trên cao","LAT":10.866300000000001,"LON":106.80119999999999,"DIST_PREV_KM":1.5,"DIST_FROM_START_KM":16.699999999999999,"SOURCE_COORD":"https://mapcarta.com/W1047604521","MEAS":16.537400000001071,"Distance":0,"KM_ROUTE":16.536999999999999}},{"type":"Feature","id":14,"geometry":{"type":"Point","coordinates":[106.8138899997071,10.879440000033707]},"properties":{"OBJECTID":14,"STATION_ID":"L1-14","STATION_NAME":"Bến xe Suối Tiên","STATION_NO":14,"STATION_TYPE":"Trên cao","LAT":10.879440000000001,"LON":106.81389,"DIST_PREV_KM":3,"DIST_FROM_START_KM":19.699999999999999,"SOURCE_COORD":"https://fr.wikipedia.org/wiki/Gare_routi%C3%A8re_Su%E1%BB%91i_Ti%C3%AAn_%28m%C3%A9tro_de_H%C3%B4_Chi_Minh-Ville%29","MEAS":18.546900000001187,"Distance":0,"KM_ROUTE":18.547000000000001}}]}